start=new Date('2022-07-04T00:00:00.000Z').valueOf();
sats=[{"OBJECT_TYPE":"PAYLOAD","SITE":"AFETR","PERIOD":"95.436","RCS_SIZE":"LARGE","MEAN_MOTION_DDOT":"0.0000000000000","DECAY_DATE":null,"LAUNCH_DATE":"2022-03-09","PERIAPSIS":"538.484","OBJECT_ID":"2022-025P","OBJECT_NAME":"STARLINK-3680","EPHEMERIS_TYPE":"0","CLASSIFICATION_TYPE":"U","REF_FRAME":"TEME","FILE":"3507292","TIME_SYSTEM":"UTC","TLE_LINE2":"2 51969  53.2168 306.0259 0001725  43.6674 354.6177 15.08862373  1307","RA_OF_ASC_NODE":"306.0259","REV_AT_EPOCH":"130","ELEMENT_SET_NO":"999","ECCENTRICITY":"0.00017250","BSTAR":"-0.00531270000000","MEAN_ANOMALY":"354.6177","COUNTRY_CODE":"US","ARG_OF_PERICENTER":"43.6674","GP_ID":"207358852","TLE_LINE1":"1 51969U 22025P   22184.91667824 -.00083908  00000-0 -53127-2 0  9991","MEAN_MOTION_DOT":"-0.00083908","NORAD_CAT_ID":"51969","CENTER_NAME":"EARTH","SEMIMAJOR_AXIS":"6917.812","MEAN_ELEMENT_THEORY":"SGP4","EPOCH":"2022-07-03T22:00:00.999936","MEAN_MOTION":"15.08862373","APOAPSIS":"540.870","INCLINATION":"53.2168"},{"MEAN_ELEMENT_THEORY":"SGP4","SEMIMAJOR_AXIS":"6917.864","INCLINATION":"53.2156","APOAPSIS":"540.811","MEAN_MOTION":"15.08845458","EPOCH":"2022-07-03T22:00:00.999936","MEAN_MOTION_DOT":"-0.00069080","CENTER_NAME":"EARTH","NORAD_CAT_ID":"51970","TLE_LINE1":"1 51970U 22025Q   22184.91667824 -.00069080  00000-0 -43636-2 0  9992","GP_ID":"207358590","MEAN_ANOMALY":"108.9377","ARG_OF_PERICENTER":"49.3678","COUNTRY_CODE":"US","TIME_SYSTEM":"UTC","ECCENTRICITY":"0.00015650","BSTAR":"-0.00436360000000","TLE_LINE2":"2 51970  53.2156 306.0227 0001565  49.3678 108.9377 15.08845458  1307","REV_AT_EPOCH":"130","RA_OF_ASC_NODE":"306.0227","ELEMENT_SET_NO":"999","CLASSIFICATION_TYPE":"U","OBJECT_ID":"2022-025Q","OBJECT_NAME":"STARLINK-3677","EPHEMERIS_TYPE":"0","FILE":"3507292","REF_FRAME":"TEME","LAUNCH_DATE":"2022-03-09","PERIAPSIS":"538.646","SITE":"AFETR","OBJECT_TYPE":"PAYLOAD","DECAY_DATE":null,"MEAN_MOTION_DDOT":"0.0000000000000","RCS_SIZE":"LARGE","PERIOD":"95.437"},{"TLE_LINE1":"1 51971U 22025R   22184.91667824 -.00026826  00000-0 -16742-2 0  9992","GP_ID":"207357354","ARG_OF_PERICENTER":"40.0327","COUNTRY_CODE":"US","MEAN_ANOMALY":"38.2724","INCLINATION":"53.2160","APOAPSIS":"541.051","MEAN_MOTION":"15.08828654","EPOCH":"2022-07-03T22:00:00.999936","MEAN_ELEMENT_THEORY":"SGP4","SEMIMAJOR_AXIS":"6917.915","CENTER_NAME":"EARTH","NORAD_CAT_ID":"51971","MEAN_MOTION_DOT":"-0.00026826","PERIAPSIS":"538.509","LAUNCH_DATE":"2022-03-09","DECAY_DATE":null,"RCS_SIZE":"LARGE","MEAN_MOTION_DDOT":"0.0000000000000","PERIOD":"95.438","SITE":"AFETR","OBJECT_TYPE":"PAYLOAD","ECCENTRICITY":"0.00018370","BSTAR":"-0.00167420000000","REV_AT_EPOCH":"130","TLE_LINE2":"2 51971  53.2160 306.0242 0001837  40.0327  38.2724 15.08828654  1301","RA_OF_ASC_NODE":"306.0242","ELEMENT_SET_NO":"999","TIME_SYSTEM":"UTC","FILE":"3507292","REF_FRAME":"TEME","CLASSIFICATION_TYPE":"U","OBJECT_ID":"2022-025R","OBJECT_NAME":"STARLINK-3669","EPHEMERIS_TYPE":"0"},{"INCLINATION":"53.2167","APOAPSIS":"540.833","MEAN_MOTION":"15.08832514","EPOCH":"2022-07-03T22:00:00.999936","MEAN_ELEMENT_THEORY":"SGP4","SEMIMAJOR_AXIS":"6917.903","CENTER_NAME":"EARTH","NORAD_CAT_ID":"51972","MEAN_MOTION_DOT":"-0.00019010","TLE_LINE1":"1 51972U 22025S   22184.91667824 -.00019010  00000-0 -11797-2 0  9995","GP_ID":"207358105","ARG_OF_PERICENTER":"52.2200","COUNTRY_CODE":"US","MEAN_ANOMALY":"126.0374","ECCENTRICITY":"0.00015390","BSTAR":"-0.00117970000000","ELEMENT_SET_NO":"999","TLE_LINE2":"2 51972  53.2167 306.0255 0001539  52.2200 126.0374 15.08832514  1304","RA_OF_ASC_NODE":"306.0255","REV_AT_EPOCH":"130","TIME_SYSTEM":"UTC","FILE":"3507292","REF_FRAME":"TEME","CLASSIFICATION_TYPE":"U","OBJECT_NAME":"STARLINK-3671","OBJECT_ID":"2022-025S","EPHEMERIS_TYPE":"0","PERIAPSIS":"538.704","LAUNCH_DATE":"2022-03-09","DECAY_DATE":null,"MEAN_MOTION_DDOT":"0.0000000000000","RCS_SIZE":"LARGE","PERIOD":"95.438","SITE":"AFETR","OBJECT_TYPE":"PAYLOAD"},{"COUNTRY_CODE":"US","ARG_OF_PERICENTER":"44.9867","MEAN_ANOMALY":"93.3064","GP_ID":"207358353","TLE_LINE1":"1 51973U 22025T   22184.91667824 -.00027331  00000-0 -17060-2 0  9990","NORAD_CAT_ID":"51973","CENTER_NAME":"EARTH","MEAN_MOTION_DOT":"-0.00027331","EPOCH":"2022-07-03T22:00:00.999936","MEAN_MOTION":"15.08832925","APOAPSIS":"540.874","INCLINATION":"53.2174","SEMIMAJOR_AXIS":"6917.902","MEAN_ELEMENT_THEORY":"SGP4","PERIOD":"95.438","RCS_SIZE":"LARGE","MEAN_MOTION_DDOT":"0.0000000000000","DECAY_DATE":null,"OBJECT_TYPE":"PAYLOAD","SITE":"AFETR","PERIAPSIS":"538.660","LAUNCH_DATE":"2022-03-09","REF_FRAME":"TEME","FILE":"3507292","OBJECT_ID":"2022-025T","OBJECT_NAME":"STARLINK-3679","EPHEMERIS_TYPE":"0","CLASSIFICATION_TYPE":"U","TLE_LINE2":"2 51973  53.2174 306.0266 0001600  44.9867  93.3064 15.08832925  1309","ELEMENT_SET_NO":"999","REV_AT_EPOCH":"130","RA_OF_ASC_NODE":"306.0266","BSTAR":"-0.00170600000000","ECCENTRICITY":"0.00016000","TIME_SYSTEM":"UTC"},{"ARG_OF_PERICENTER":"46.4931","COUNTRY_CODE":"US","MEAN_ANOMALY":"151.8254","GP_ID":"207359090","TLE_LINE1":"1 51974U 22025U   22184.91667824 -.00039867  00000-0 -25013-2 0  9995","CENTER_NAME":"EARTH","NORAD_CAT_ID":"51974","MEAN_MOTION_DOT":"-0.00039867","INCLINATION":"53.2146","APOAPSIS":"541.023","MEAN_MOTION":"15.08831320","EPOCH":"2022-07-03T22:00:00.999936","MEAN_ELEMENT_THEORY":"SGP4","SEMIMAJOR_AXIS":"6917.907","DECAY_DATE":null,"RCS_SIZE":"LARGE","MEAN_MOTION_DDOT":"0.0000000000000","PERIOD":"95.438","SITE":"AFETR","OBJECT_TYPE":"PAYLOAD","PERIAPSIS":"538.521","LAUNCH_DATE":"2022-03-09","FILE":"3507292","REF_FRAME":"TEME","CLASSIFICATION_TYPE":"U","OBJECT_NAME":"STARLINK-3672","OBJECT_ID":"2022-025U","EPHEMERIS_TYPE":"0","ECCENTRICITY":"0.00018080","BSTAR":"-0.00250130000000","RA_OF_ASC_NODE":"306.0368","TLE_LINE2":"2 51974  53.2146 306.0368 0001808  46.4931 151.8254 15.08831320  1300","ELEMENT_SET_NO":"999","REV_AT_EPOCH":"130","TIME_SYSTEM":"UTC"},{"MEAN_MOTION_DOT":"-0.00063220","NORAD_CAT_ID":"51975","CENTER_NAME":"EARTH","SEMIMAJOR_AXIS":"6917.896","MEAN_ELEMENT_THEORY":"SGP4","EPOCH":"2022-07-03T22:00:00.999936","MEAN_MOTION":"15.08834991","APOAPSIS":"540.879","INCLINATION":"53.2170","MEAN_ANOMALY":"142.3026","COUNTRY_CODE":"US","ARG_OF_PERICENTER":"50.8026","GP_ID":"207357854","TLE_LINE1":"1 51975U 22025V   22184.91667824 -.00063220  00000-0 -39898-2 0  9992","OBJECT_NAME":"STARLINK-3674","EPHEMERIS_TYPE":"0","OBJECT_ID":"2022-025V","CLASSIFICATION_TYPE":"U","REF_FRAME":"TEME","FILE":"3507292","TIME_SYSTEM":"UTC","RA_OF_ASC_NODE":"306.0268","TLE_LINE2":"2 51975  53.2170 306.0268 0001617  50.8026 142.3026 15.08834991  1308","REV_AT_EPOCH":"130","ELEMENT_SET_NO":"999","BSTAR":"-0.00398980000000","ECCENTRICITY":"0.00016170","OBJECT_TYPE":"PAYLOAD","SITE":"AFETR","PERIOD":"95.438","RCS_SIZE":"LARGE","MEAN_MOTION_DDOT":"0.0000000000000","DECAY_DATE":null,"LAUNCH_DATE":"2022-03-09","PERIAPSIS":"538.642"},{"ARG_OF_PERICENTER":"47.7018","COUNTRY_CODE":"US","MEAN_ANOMALY":"155.5721","GP_ID":"207358605","TLE_LINE1":"1 51976U 22025W   22184.91667824 -.00065854  00000-0 -41559-2 0  9995","CENTER_NAME":"EARTH","NORAD_CAT_ID":"51976","MEAN_MOTION_DOT":"-0.00065854","INCLINATION":"53.2202","APOAPSIS":"540.948","MEAN_MOTION":"15.08855704","EPOCH":"2022-07-03T22:00:00.999936","MEAN_ELEMENT_THEORY":"SGP4","SEMIMAJOR_AXIS":"6917.832","DECAY_DATE":null,"PERIOD":"95.437","RCS_SIZE":"LARGE","MEAN_MOTION_DDOT":"0.0000000000000","SITE":"AFETR","OBJECT_TYPE":"PAYLOAD","PERIAPSIS":"538.447","LAUNCH_DATE":"2022-03-09","FILE":"3507292","REF_FRAME":"TEME","CLASSIFICATION_TYPE":"U","OBJECT_NAME":"STARLINK-3663","EPHEMERIS_TYPE":"0","OBJECT_ID":"2022-025W","ECCENTRICITY":"0.00018080","BSTAR":"-0.00415590000000","ELEMENT_SET_NO":"999","TLE_LINE2":"2 51976  53.2202 316.0323 0001808  47.7018 155.5721 15.08855704  1309","RA_OF_ASC_NODE":"316.0323","REV_AT_EPOCH":"130","TIME_SYSTEM":"UTC"},{"GP_ID":"207358853","TLE_LINE1":"1 51977U 22025X   22184.91667824 -.00049015  00000-0 -30824-2 0  9990","ARG_OF_PERICENTER":"60.3561","COUNTRY_CODE":"US","MEAN_ANOMALY":"152.9127","MEAN_MOTION":"15.08843863","EPOCH":"2022-07-03T22:00:00.999936","INCLINATION":"53.2168","APOAPSIS":"540.661","MEAN_ELEMENT_THEORY":"SGP4","SEMIMAJOR_AXIS":"6917.869","NORAD_CAT_ID":"51977","CENTER_NAME":"EARTH","MEAN_MOTION_DOT":"-0.00049015","PERIAPSIS":"538.807","LAUNCH_DATE":"2022-03-09","DECAY_DATE":null,"RCS_SIZE":"LARGE","PERIOD":"95.437","MEAN_MOTION_DDOT":"0.0000000000000","SITE":"AFETR","OBJECT_TYPE":"PAYLOAD","TLE_LINE2":"2 51977  53.2168 296.0486 0001340  60.3561 152.9127 15.08843863  1307","ELEMENT_SET_NO":"999","RA_OF_ASC_NODE":"296.0486","REV_AT_EPOCH":"130","BSTAR":"-0.00308240000000","ECCENTRICITY":"0.00013400","TIME_SYSTEM":"UTC","REF_FRAME":"TEME","FILE":"3507292","OBJECT_NAME":"STARLINK-3660","OBJECT_ID":"2022-025X","EPHEMERIS_TYPE":"0","CLASSIFICATION_TYPE":"U"},{"PERIAPSIS":"538.840","LAUNCH_DATE":"2022-03-09","DECAY_DATE":null,"PERIOD":"95.438","RCS_SIZE":"LARGE","MEAN_MOTION_DDOT":"0.0000000000000","SITE":"AFETR","OBJECT_TYPE":"PAYLOAD","RA_OF_ASC_NODE":"316.0366","TLE_LINE2":"2 51978  53.2138 316.0366 0001369  62.7317 200.5997 15.08826508  1303","REV_AT_EPOCH":"130","ELEMENT_SET_NO":"999","BSTAR":"-0.00154060000000","ECCENTRICITY":"0.00013690","TIME_SYSTEM":"UTC","REF_FRAME":"TEME","FILE":"3507292","OBJECT_NAME":"STARLINK-3666","OBJECT_ID":"2022-025Y","EPHEMERIS_TYPE":"0","CLASSIFICATION_TYPE":"U","GP_ID":"207358591","TLE_LINE1":"1 51978U 22025Y   22184.91667824 -.00024714  00000-0 -15406-2 0  9999","ARG_OF_PERICENTER":"62.7317","COUNTRY_CODE":"US","MEAN_ANOMALY":"200.5997","MEAN_MOTION":"15.08826508","EPOCH":"2022-07-03T22:00:00.999936","INCLINATION":"53.2138","APOAPSIS":"540.734","MEAN_ELEMENT_THEORY":"SGP4","SEMIMAJOR_AXIS":"6917.922","NORAD_CAT_ID":"51978","CENTER_NAME":"EARTH","MEAN_MOTION_DOT":"-0.00024714"}];
